COSMOS 1892             
1 18421U 87088A   19120.94995644  .00000441  00000-0  20730-4 0  9995
2 18421  82.4984 322.6752 0016694  64.5815 295.7143 15.16796031721869
SL-14 R/B               
1 18749U 88001B   19121.21682639  .00000056  00000-0  39472-5 0  9998
2 18749  82.5173  24.8962 0017780 216.3240 256.5229 14.83185840691716
COSMOS 1933             
1 18958U 88020A   19120.74152604  .00000518  00000-0  35740-4 0  9998
2 18958  82.5294 165.0541 0012995 117.1749 243.0804 15.03582866672911
SL-3 R/B                
1 19046U 88032B   19121.19437018 -.00000455  00000-0 -29322-4 0  9996
2 19046  97.4382 154.6610 0037015 169.9188 190.2788 15.02548539675191
SL-16 R/B               
1 19120U 88039B   19120.94256835  .00000126  00000-0  82857-4 0  9999
2 19120  71.0145 322.2752 0023544 225.1954 134.7258 14.19195482602981
COSMOS 1953             
1 19210U 88050A   19120.93613654  .00000690  00000-0  45520-4 0  9999
2 19210  82.5161  91.1434 0014636  90.3204 269.9700 15.05761810659432
SL-8 R/B                
1 19257U 88053B   19120.97372812 -.00000006  00000-0  67578-5 0  9995
2 19257  74.0511  41.2312 0019603 124.9058 308.0686 14.37434470616590
COSMOS 1975             
1 19573U 88093A   19120.87745946  .00000451  00000-0  29956-4 0  9991
2 19573  82.5230  44.6967 0015373 129.1448 231.1147 15.04672713641311
SL-14 R/B               
1 19574U 88093B   19120.78107222  .00000052  00000-0  33338-5 0  9998
2 19574  82.5343 226.8423 0022314  29.7887  84.2348 14.83295667650633
SL-16 R/B               
1 19650U 88102B   19120.95102437 -.00000000  00000-0  24237-4 0  9997
2 19650  71.0024  19.4121 0015995 229.5477 130.4252 14.15782020572359
INTERCOSMOS 24          
1 20261U 89080A   19121.02052293  .00000044  00000-0  11333-4 0  9996
2 20261  82.6006 287.7920 1202698 321.8706  30.2899 12.56061865351689
SL-14 R/B               
1 20262U 89080C   19120.57535116  .00000092  00000-0  19113-4 0  9993
2 20262  82.5936 339.0263 1237671 140.7624 229.0149 12.48915526346906
DELTA 2 R/B(1)          
1 20303U 89085B   19121.17032088  .00001225  00000-0  42764-4 0  9998
2 20303  35.6264  84.5099 0096966 104.1549 256.9974 15.26159131604861
DELTA 1 R/B             
1 20323U 89089B   19121.56291171  .00000037  00000-0  18442-4 0  9993
2 20323  97.0730 329.3240 0073376  90.9816 269.9789 14.48298632553639
DELTA 2 R/B(1)          
1 20362U 89097B   19120.22734321  .00019101  00000-0  13296-3 0  9999
2 20362  35.6035  39.6567 0030170 230.8162 258.2923 15.72761780606508
DELTA 2 R/B(1)          
1 20453U 90008B   19120.50170117  .00000413  00000-0  27207-4 0  9996
2 20453  35.6230 175.8504 0282758  91.3185 271.9934 14.84830790549629
COSMOS 2058             
1 20465U 90010A   19120.95510515  .00000236  00000-0  17739-4 0  9993
2 20465  82.4869 311.1911 0016213 149.6633 210.5532 14.97861444566427
SL-14 R/B               
1 20466U 90010B   19120.95570066  .00000081  00000-0  74381-5 0  9996
2 20466  82.5015  93.7298 0018990 254.8766 105.0348 14.81353421557510
SL-14 R/B               
1 20511U 90018B   19121.18287216  .00000072  00000-0  63996-5 0  9993
2 20511  82.5262  38.0490 0018426  37.4426  73.3461 14.80010254573089
HST                     
1 20580U 90037B   19120.93151622  .00000408  00000-0  13903-4 0  9998
2 20580  28.4684 174.3596 0002572 324.9271  31.3099 15.09214987393420
SL-16 R/B               
1 20625U 90046B   19121.20522000  .00000271  00000-0  16542-3 0  9990
2 20625  70.9971 155.5851 0013582 157.7611 202.4103 14.14640593494429
COSMOS 2084             
1 20663U 90055A   19121.20320581 -.00000071  00000-0  11893-4 0  9996
2 20663  62.7927 107.8976 0083124 161.6857 198.7262 14.91970269561704
SL-6 R/B(2)             
1 20666U 90055D   19121.26007898 -.00000063  00000-0  12097-4 0  9996
2 20666  62.7878  25.0303 0048666 192.2818 167.7093 14.92236317563100
SL-8 R/B                
1 20775U 90078B   19121.31244126  .00001221  00000-0  57712-4 0  9994
2 20775  82.9303 207.0057 0578594  33.5891 330.0602 14.33233807446536
SL-8 R/B                
1 21088U 91006B   19120.83872737  .00000030  00000-0  14971-4 0  9992
2 21088  82.9443 232.7232 0022098 205.8570 267.1193 13.77120191419555
OKEAN-3                 
1 21397U 91039A   19121.22492408  .00000200  00000-0  16735-4 0  9997
2 21397  82.5243 209.4332 0019460 111.1293 249.2009 14.92794180511670
COSMOS 2151             
1 21422U 91042A   19121.55822317  .00000125  00000-0  97505-5 0  9993
2 21422  82.4982 316.0263 0014506 166.3091 193.8525 14.92039915510393
SL-14 R/B               
1 21423U 91042B   19121.17319690  .00000046  00000-0  30024-5 0  9992
2 21423  82.4969  43.1493 0017849 168.2786 191.8846 14.79761026503584
ERS-1                   
1 21574U 91050A   19120.88547046  .00000022  00000-0  21902-4 0  9991
2 21574  98.5456  70.4700 0034194  78.8267 281.6761 14.37692568455696
ARIANE 40 R/B           
1 21610U 91050F   19120.82121000 -.00000004  00000-0  12630-4 0  9993
2 21610  98.5120 187.9950 0004289  70.9410  40.0106 14.40869026458413
INTERCOSMOS 25          
1 21819U 91086A   19120.71837562  .00000394  00000-0  71612-4 0  9994
2 21819  82.5879  13.9466 1518572  73.6359 302.5832 12.04945858194477
SL-14 R/B               
1 21820U 91086B   19120.85517757  .00000065  00000-0  13432-4 0  9993
2 21820  82.5630  75.7440 1574850 288.7308  54.9643 11.93447294188217
SL-8 R/B                
1 21876U 92008B   19120.96581211 -.00000018  00000-0 -33464-4 0  9994
2 21876  82.9250 329.7478 0033564 289.0449 181.6974 13.75636539365029
SL-8 R/B                
1 21938U 92020B   19120.79649647  .00000021  00000-0  57033-5 0  9997
2 21938  82.9331 213.6742 0030636  88.3406  29.6383 13.75277355356812
SL-16 R/B               
1 22220U 92076B   19121.23954383  .00000164  00000-0  10625-3 0  9991
2 22220  71.0013  61.4184 0014583 306.0076 156.1832 14.16443171367496
SL-16 R/B               
1 22285U 92093B   19120.68992223 -.00000172  00000-0 -64423-4 0  9991
2 22285  71.0218 220.5340 0004473 196.5189 163.5789 14.15029016359086
COSMOS 2228             
1 22286U 92094A   19120.90557962  .00000154  00000-0  13939-4 0  9999
2 22286  82.5188  90.1077 0021726  18.9711 341.2310 14.88036911402947
SL-16 R/B               
1 22566U 93016B   19121.18897807  .00000259  00000-0  15818-3 0  9994
2 22566  71.0077  73.2363 0010523 185.8821 174.2180 14.14955722347886
COSMOS 2242             
1 22626U 93024A   19120.50755339  .00000172  00000-0  16010-4 0  9998
2 22626  82.5190 118.4441 0019496  20.5374 339.6623 14.87895987407603
SL-16 R/B               
1 22803U 93059B   19121.52216759  .00000076  00000-0  61564-4 0  9991
2 22803  70.9907 249.4587 0015235  61.6905 298.5753 14.16806714325075
ARIANE 40 R/B           
1 22830U 93061H   19121.12816702 -.00000020  00000-0  97612-5 0  9998
2 22830  98.8201 160.1038 0012107  93.0694 267.1874 14.31433817335940
COSMOS 2278             
1 23087U 94023A   19121.12284041 -.00000284  00000-0 -12521-3 0  9994
2 23087  71.0559  11.5829 0011393 256.4647 103.5207 14.13786091291028
SL-16 R/B               
1 23088U 94023B   19120.89897923 -.00000273  00000-0 -11732-3 0  9998
2 23088  70.9996 289.1317 0002743 189.2904 170.8168 14.14676713291826
SL-16 R/B               
1 23343U 94074B   19120.74094706 -.00000000  00000-0  73773-5 0  9992
2 23343  98.0575 170.8538 0007882  49.8949  62.6227 14.76774664317560
SL-16 R/B               
1 23405U 94077B   19120.71516949 -.00000201  00000-0 -78599-4 0  9993
2 23405  70.9844 220.3738 0003387 321.4199  38.6681 14.15213307261821
ERS-2                   
1 23560U 95021A   19121.45776264  .00000995  00000-0  46808-4 0  9991
2 23560  98.5013 215.0122 0004548 129.4838 230.6798 15.22470590279292
ARIANE 40+ R/B          
1 23561U 95021B   19121.55531198  .00000023  00000-0  22925-4 0  9994
2 23561  98.7703 148.2369 0007653  45.4616  69.8284 14.37918226259458
SL-16 R/B               
1 23705U 95058B   19120.93286008  .00000127  00000-0  89985-4 0  9996
2 23705  71.0248  36.5706 0013529 328.7390  31.2927 14.15125709213476
SL-16 R/B               
1 24298U 96051B   19121.14108377 -.00000001  00000-0  25774-4 0  9992
2 24298  70.8251  62.0918 0019341 246.5774 113.3312 14.12395554168254
ORBVIEW 2 (SEASTAR)     
1 24883U 97037A   19120.91830527  .00000018  00000-0  22368-4 0  9993
2 24883  98.5783 232.0581 0001419 223.2951 136.8122 14.33501006149467
SL-16 R/B               
1 25400U 98043G   19120.85399458 -.00000037  00000-0  25681-5 0  9997
2 25400  98.5692  60.3716 0011057 100.1217 260.1211 14.25439916 82097
SL-16 R/B               
1 25407U 98045B   19120.94956341 -.00000112  00000-0 -32508-4 0  9996
2 25407  71.0137  46.6017 0010003 251.6826 108.3209 14.15787719 72559
ISS (ZARYA)             
1 25544U 98067A   19121.69022038  .00002328  00000-0  44620-4 0  9999
2 25544  51.6418 232.2994 0000932 266.9750 175.3806 15.52615545168034
SL-8 R/B                
1 25723U 99022C   19120.44306657  .00008132  00000-0  87040-4 0  9996
2 25723  48.4127 101.0841 0006705 107.1000 253.0684 15.64717070112975
CZ-4B R/B               
1 25732U 99025C   19121.02721650 -.00000013  00000-0  16150-4 0  9993
2 25732  98.9798 141.0147 0036487 309.1690 103.2552 14.17662328 33380
OKEAN-O                 
1 25860U 99039A   19120.95710839  .00000034  00000-0  12533-4 0  9991
2 25860  98.2272 127.3490 0001906  96.7580 263.3846 14.76601832 64493
SL-16 R/B               
1 25861U 99039B   19120.97599597  .00000012  00000-0  92073-5 0  9994
2 25861  98.1867 110.4927 0016699  49.2859  10.2039 14.78527174 66525
TERRA                   
1 25994U 99068A   19121.46682043  .00000206  00000-0  55806-4 0  9994
2 25994  98.2064 196.7136 0001106 101.4460 258.6870 14.57111783 30172
ENVISAT                 
1 27386U 02009A   19121.52735995  .00000008  00000-0  16244-4 0  9995
2 27386  98.1531 145.0072 0001399  88.6494  28.1107 14.37947185899278
